[{"OBJECT_NAME":"HEAD-1","OBJECT_ID":"2017-072B","EPOCH":"2026-03-10T00:09:55.710720","MEAN_MOTION":14.28734947,"ECCENTRICITY":0.0011073,"INCLINATION":98.9629,"RA_OF_ASC_NODE":84.8369,"ARG_OF_PERICENTER":82.9382,"MEAN_ANOMALY":277.3057,"EPHEMERIS_TYPE":0,"CLASSIFICATION_TYPE":"U","NORAD_CAT_ID":43011,"ELEMENT_SET_NO":999,"REV_AT_EPOCH":43319,"BSTAR":0.00021004086,"MEAN_MOTION_DOT":4.82e-6,"MEAN_MOTION_DDOT":0},{"OBJECT_NAME":"METEOR 2-8 DEB","OBJECT_ID":"1982-025AY","EPOCH":"2026-03-03T07:06:32.265792","MEAN_MOTION":14.29428118,"ECCENTRICITY":0.00265518,"INCLINATION":82.501,"RA_OF_ASC_NODE":275.2754,"ARG_OF_PERICENTER":12.8656,"MEAN_ANOMALY":347.32,"EPHEMERIS_TYPE":0,"CLASSIFICATION_TYPE":"U","NORAD_CAT_ID":36861,"ELEMENT_SET_NO":999,"REV_AT_EPOCH":65087,"BSTAR":0.0011131306,"MEAN_MOTION_DOT":2.865e-5,"MEAN_MOTION_DDOT":0}]
